[Satellite]
VERSION=1.1
NAME=FLOCK 2E'-12
NICKNAME=FLOCK 2E'-12
TLE1=1 41578U 98067KC  17186.29092782  .00015878  00000-0  12647-3 0  9999
TLE2=2 41578  51.6340 282.3553 0002861 203.9083 156.1783 15.71372706 62127
